#dP2020 10 21  0  0  0.00000000      96 __u+U ITR00 FIT  IAC
## 2128 259200.00000000   900.00000000 59143 0.0000000000000
+  115   C06C07C08C09C10C11C12C13C14C16C19C20C21C22C23C24C25
+        C26C27C28C29C30C32C33C34C35C36C37C38C39C40C43C44C45
+        C46E01E02E03E04E05E07E08E09E11E12E13E14E15E18E19E21
+        E24E25E26E27E30E31E33E36G01G02G03G04G05G06G07G08G09
+        G10G11G12G13G15G16G17G18G19G20G21G22G24G25G26G27G28
+        G29G30G31G32J01J02J03R01R02R03R04R05R07R08R09R11R12
+        R13R14R15R16R17R18R19R20R21R22R23R24R26  0  0  0  0
++         9  9  7  7  9 10  7  7  7  8  7  7  7  6  7  6  6
++         8  6  7  9  8  7  6  6  7  7  7 10 11  9  9 10  9
++         8  7  6  6  7  7  6  6  7  7  8  7  6  7  6  7  7
++         7  6  7  7  6  7  6  6  7  7  6  6  6  6  7  6  6
++         7  6  7  6  5  6  7  6  7  6  7  6  6  7  6  5  6
++         6  8  6  7  7  8  7  6  6  7  7  7  7  6  7  7  7
++         7  6  6  6  7  8  8  8  6  7  6  7  6  0  0  0  0
%c M  cc GPS ccc cccc cccc cccc cccc ccccc ccccc ccccc ccccc
%c cc cc ccc ccc cccc cccc cccc cccc ccccc ccccc ccccc ccccc
%f  0.0000000  0.000000000  0.00000000000  0.000000000000000
%f  0.0000000  0.000000000  0.00000000000  0.000000000000000
%i    0    0    0    0      0      0      0      0         0
%i    0    0    0    0      0      0      0      0         0
/* INFORMATION & ANALYSIS CENTER (IAC)      ULTRA-RAPID DATA
/* S/V CLOCKS ARE ALIGNED TO GNSS TIME                      
/* G:C1WC2W R:C1PC2P E:C1XC5X C:C2IC6I J:C1CC2S             
/* PCV:IGS14_2118 OL/AL:FES2004  NONE     YN ORB:CoN CLK:CoN
*  2020 10 21  4  0  0.00000000
PC06 -12994.431883  37055.047973  16356.386589     60.284004
PC07 -14154.090293  22239.402189 -32677.031510   -118.158928
PC08 -25346.691766  27491.583520  19193.786137   -624.885128
PC09  -3997.322962  42185.260644   1217.365427    886.161264
PC10   2089.371605  28469.907310 -30697.058157   -159.468611
PC11  16244.316403  -9321.573355  20769.806134   -698.444831
PC12  12406.877072  11400.163060  22273.892874    566.901382
PC13 -11761.521034  28523.297754  28678.382446    705.635469
PC14  20500.904867    749.317758 -18876.710196     10.336002
PC16 -10237.874823  38721.497593  13558.578398   -598.332708
PC19 -14429.848499   8034.280731  22510.646103    589.289722
PC20 -23092.243531  -8445.878994  13227.874412   -865.957915
PC21  18278.082814  20618.441830   4366.202368   -701.752659
PC22   2795.820288  20280.677197  18945.394271   -776.929644
PC23   7543.441608 -17534.594302  20370.093275   -900.450806
PC24  25885.550933   -212.154473 -10456.594968   -720.626044
PC25  23243.573477 -13506.734645   7529.238609   -798.492535
PC26  13873.410463  11367.664476 -21388.809939    874.655517
PC27  -7528.873120 -20449.406812 -17441.542961    419.203707
PC28   5288.255609 -27357.314380  -1668.258327   -155.727905
PC29 -14245.102373  18747.151833 -14980.020865    300.219621
PC30 -15863.108245  -1478.198232 -22912.721720    392.595431
PC32 -18432.698732 -20494.037109  -4372.986904   -900.259762
PC33  14454.788377  -8067.803631 -22467.128733   -816.263666
PC34  16001.400860    881.515391  22839.221438   -827.359250
PC35  -4498.026837  27518.400569   1436.613533   -597.902768
PC36 -23705.379307  12800.862793  -7242.629299   -868.673856
PC37 -12815.561788 -12114.200517  21649.002347   -892.733878
PC38 -21056.472862  29434.770526  21513.784552    107.378219
PC39  -5481.700581  40475.404567  10697.429526     24.125893
PC40  -1473.720772  24354.527181 -34325.891443     92.959684
PC43  14546.782914 -18318.006900  15203.279168   -425.892628
PC44   8146.656740  20399.958269  17222.439139   -158.110261
PC45  -7471.902264  17436.860895 -20446.521148 999999.999999
PC46 -26056.249192    802.108030   9924.860030 999999.999999
PE01  -2637.509040  16255.927837 -24585.752209   -965.761026
PE02   2530.021539 -16280.824442  24599.197641    170.460513
PE03  -1620.823558 -27048.527130 -11938.366914   -356.054245
PE04  14630.280620  24973.749574  -6198.432684   -631.360954
PE05  12520.280829 -13271.066524 -23314.118528   -336.139875
PE07 -19230.917346  -8139.793360  20981.056667   -451.402933
PE08 -14871.058376 -24770.599036   6465.442644   6103.514783
PE09  19147.485758   7909.530636 -21139.082216   5891.926121
PE11  20094.094433  -2821.468328  21543.071752   6387.241649
PE12   7072.972419  16256.034914  23705.993702   5546.331579
PE13 -19910.731261   2629.201823 -21737.121394    404.864532
PE14 -16719.611597 -20019.768740 -18336.072314  -1197.510580
PE15  -7191.689745 -16071.404336 -23789.316218    847.490312
PE18   8991.643761  20738.735824   9315.288610  -1308.089166
PE19    -11.275946  26179.910265  13811.228618    108.243233
PE21 -22176.848595   8660.003207 -17580.017873   -627.717333
PE24  29243.653939   4647.225708   -303.321589   -540.324459
PE25  22293.959023  -8584.357984  17493.706745   -518.652583
PE26 -20889.399494  19983.300490  -6321.128434   2589.117275
PE27 -29296.848457  -4200.528862   -140.809643    109.407697
PE30 -18551.918787 -14838.789993  17651.827400   3488.912530
PE31  19184.037395  14498.308503 -17246.190533   -475.030244
PE33  -9734.279153  25308.422094  11869.207454   -462.882601
PE36  20924.480990 -19768.021941   6918.826470    491.723959
PG01  10664.895280 -19947.094642 -13886.448250    814.242272
PG02 -21326.394432  14852.230233  -4764.448826   -532.278565
PG03    327.492750 -15811.430605 -21435.102020   -331.886650
PG04   1317.447455 -25842.312377  -5887.463977   -147.376151
PG05 -20354.261006   4917.436949  16294.815092    -23.905242
PG06 -20075.981080   1046.690975 -17321.625956   -334.450379
PG07  -5992.663269 -14717.049201  21551.581470   -397.742121
PG08   7141.551545 -20605.741567  14983.646138    -52.177369
PG09  -7964.838542 -24686.991402   5601.853027   -302.958064
PG10  23738.087734  11825.000754   3193.731582   -484.869333
PG11  11061.048455 -24360.222858   -112.882568   -131.152839
PG12  -3624.738665  14788.024181 -22008.205212     51.286785
PG13 -13032.730959  12698.491003  19176.439454     56.784887
PG15  -4938.399365  21840.197969  13653.690763   -195.532222
PG16  19852.409805  -3072.941007  17383.371260   -225.264894
PG17 -13737.691696 -11623.178652 -19119.107953    342.736585
PG18   6595.605237  13805.404227  21696.454661    310.122579
PG19 -14808.573938  -4373.357896 -21905.989723    -89.031936
PG20  16942.783359  14926.199954  14109.289347    526.329070
PG21  20213.958018 -16947.556462   1401.102266     59.932299
PG22   8908.261817 -13503.078275 -20851.019624   -740.705143
PG24 -12246.837672  21093.176747 -10245.214132    -20.048676
PG25   9919.051253  17354.626866 -17859.673296      8.693673
PG26  25488.544638   3829.701768   6886.408032    298.685334
PG27  12881.161794  -9611.767197  20929.047209   -423.158254
PG28 -22822.119641 -13321.620468   2081.090064    665.253553
PG29   4120.289085  25984.949522   3417.694542   -219.845215
PG30 -15029.590727  -7683.377937  20599.690619   -321.223287
PG31  21663.465264  -2483.069549 -15534.209956    -76.287303
PG32  15092.211444  10972.063525 -18873.847275    359.737874
PJ01 -25854.496639  21828.126788  30136.515238   -339.448099
PJ02 -32648.599426  16364.128070 -16515.285121     -5.469824
PJ03 -21969.328517  30730.551345 -14105.450069     -2.185345
PR01   2591.855828  17575.652562  18292.620574     69.374982
PR02  15603.747917  20201.719068   -839.563872    450.858099
PR03  16927.794183   9174.180055 -16727.806489     24.150376
PR04   8438.215238  -6809.579949 -23069.760282     58.719915
PR05  -4626.093885 -18970.869142 -16395.259524     59.639977
PR07 -16741.745126  -8553.096213  17244.544103    -40.906718
PR08  -8540.435186   6916.320005  23064.908527    -55.273439
PR09 -14501.591917  -7745.296506  19549.571634      3.411214
PR11 -20402.156217   8834.716748 -12527.326518    -41.849537
PR12  -4742.362347  11305.812338 -22332.209126    173.514359
PR13  14168.386494   7567.746461 -19823.916867    -45.523503
PR14  24934.311402   -625.525211  -5291.375569     56.832332
PR15  20975.368477  -8346.171703  11903.507609    106.990443
PR16   3779.964450 -11559.929847  22423.077369     -7.444768
PR17  11905.686415  -1816.536137  22502.441352    367.726200
PR18  13711.303416 -17395.000632  12629.520236     53.432100
PR19   9175.008686 -23558.782469  -3446.487542   -116.282952
PR20  -2455.523652 -15742.065930 -19901.134138   -424.647146
PR21 -12138.667601   2841.484947 -22245.970734   -160.481216
PR22 -13643.367373  18249.524377 -11566.391341    -78.408149
PR23  -4741.827513  22689.216511  10630.936828    339.702921
PR24   3443.767889  15318.370224  20112.748882     17.623555
PR26    585.777853 -19595.889279 -16329.070590   -363.470278
EOF
